NORAD_CAT_ID,OBJECT_NAME,OBJECT_TYPE,EPOCH,MEAN_MOTION,ECCENTRICITY,INCLINATION,RA_OF_ASC_NODE,ARG_OF_PERICENTER,MEAN_ANOMALY,BSTAR,MEAN_MOTION_DOT,MEAN_MOTION_DDOT,TLE_LINE0,TLE_LINE1,TLE_LINE2,SEMIMAJOR_AXIS,PERIOD,APOGEE,PERIGEE,DECAYED
53399.0,STARLINK-4528,PAYLOAD,2024-02-21 05:41:45,15.08847257,0.0001334,53.2164,239.5652,86.9573,273.1572,-5.7164e-06,-3.79e-06,0.0,0 STARLINK-4528,1 53399U 22097M   24052.23733496 -.00000379  00000-0 -57164-5 0  9998,2 53399  53.2164 239.5652 0001334  86.9573 273.1572 15.08847257 85673,6917.858,95.437,540.646,538.8,0.0
53399.0,STARLINK-4528,PAYLOAD,2024-02-21 20:00:15,15.08831703,0.0001212,53.2166,236.8891,94.8809,265.2321,3.1737e-05,2.17e-06,0.0,0 STARLINK-4528,1 53399U 22097M   24052.83351358  .00000217  00000-0  31737-4 0  9993,2 53399  53.2166 236.8891 0001212  94.8809 265.2321 15.08831703 85274,6917.906,95.438,540.609,538.932,0.0
53399.0,STARLINK-4528,PAYLOAD,2024-02-21 21:35:38,15.08835849,0.0001174,53.2164,236.5913,95.5215,264.5911,6.4518e-05,7.39e-06,0.0,0 STARLINK-4528,1 53399U 22097M   24052.89974993  .00000739  00000-0  64518-4 0  9997,2 53399  53.2164 236.5913 0001174  95.5215 264.5911 15.08835849 85777,6917.893,95.438,540.57,538.946,0.0
53399.0,STARLINK-4528,PAYLOAD,2024-02-22 11:54:06,15.08838481,0.0001101,53.2166,233.9141,89.6527,270.4591,2.9729e-05,1.85e-06,0.0,0 STARLINK-4528,1 53399U 22097M   24053.49591198  .00000185  00000-0  29729-4 0  9996,2 53399  53.2166 233.9141 0001101  89.6527 270.4591 15.08838481 85868,6917.885,95.438,540.512,538.988,0.0
53399.0,STARLINK-4528,PAYLOAD,2024-02-22 18:15:38,15.08847458,0.0001156,53.2154,232.7276,89.7503,270.3621,4.0011e-05,3.49e-06,0.0,0 STARLINK-4528,1 53399U 22097M   24053.76086588  .00000349  00000-0  40011-4 0  9997,2 53399  53.2154 232.7276 0001156  89.7503 270.3621 15.08847458 85414,6917.858,95.437,540.522,538.923,0.0
53399.0,STARLINK-4528,PAYLOAD,2024-02-23 11:44:53,15.08832503,0.0001147,53.2156,229.456,84.4591,275.6532,0.00035499,5.365e-05,0.0,0 STARLINK-4528,1 53399U 22097M   24054.48950346  .00005365  00000-0  35499-3 0  9995,2 53399  53.2156 229.4560 0001147  84.4591 275.6532 15.08832503 86015,6917.903,95.438,540.562,538.975,0.0
53399.0,STARLINK-4528,PAYLOAD,2024-02-23 21:17:12,15.08803761,0.0001381,53.2155,227.6706,100.3998,259.715,0.0009387,0.00014668,0.0,0 STARLINK-4528,1 53399U 22097M   24054.88694711  .00014668  00000-0  93870-3 0  9993,2 53399  53.2155 227.6706 0001381 100.3998 259.7150 15.08803761 86074,6917.991,95.44,540.812,538.901,0.0
53399.0,STARLINK-4528,PAYLOAD,2024-02-24 11:35:40,15.08844179,9.53e-05,53.2158,224.995,77.376,282.7338,-2.0049e-05,-6.07e-06,0.0,0 STARLINK-4528,1 53399U 22097M   24055.48310783 -.00000607  00000-0 -20049-4 0  9993,2 53399  53.2158 224.9950 0000953  77.3760 282.7338 15.08844179 85679,6917.868,95.437,540.392,539.073,0.0
53399.0,STARLINK-4528,PAYLOAD,2024-02-24 21:07:58,15.08850309,0.0001518,53.2158,223.2104,92.5988,267.5178,9.3984e-06,-1.38e-06,0.0,0 STARLINK-4528,1 53399U 22097M   24055.88054127 -.00000138  00000-0  93984-5 0  9991,2 53399  53.2158 223.2104 0001518  92.5988 267.5178 15.08850309 86228,6917.849,95.437,540.764,538.664,0.0
53399.0,STARLINK-4528,PAYLOAD,2024-02-25 14:37:13,15.08848207,0.0001452,53.2143,219.9391,92.5871,267.5287,-2.8932e-05,-7.49e-06,0.0,0 STARLINK-4528,1 53399U 22097M   24056.60917969 -.00000749  00000-0 -28932-4 0  9993,2 53399  53.2143 219.9391 0001452  92.5871 267.5287 15.08848207 86337,6917.855,95.437,540.725,538.716,0.0
53399.0,STARLINK-4528,PAYLOAD,2024-02-25 17:47:58,15.08852906,0.0001293,53.2158,219.3451,90.0922,270.0219,9.0325e-06,-1.44e-06,0.0,0 STARLINK-4528,1 53399U 22097M   24056.74165461 -.00000144  00000-0  90325-5 0  9994,2 53399  53.2158 219.3451 0001293  90.0922 270.0219 15.08852906 86354,6917.841,95.437,540.6,538.811,0.0
53399.0,STARLINK-4528,PAYLOAD,2024-02-26 03:20:18,15.08847506,0.0001279,53.2166,217.5585,85.2946,274.8192,-4.4461e-05,-9.96e-06,0.0,0 STARLINK-4528,1 53399U 22097M   24057.13909782 -.00000996  00000-0 -44461-4 0  9995,2 53399  53.2166 217.5585 0001279  85.2946 274.8192 15.08847506 85921,6917.857,95.437,540.607,538.838,0.0
53399.0,STARLINK-4528,PAYLOAD,2024-02-26 14:28:01,15.08821843,0.0001515,53.2149,215.479,89.393,270.7235,-8.9702e-05,-1.715e-05,0.0,0 STARLINK-4528,1 53399U 22097M   24057.60279918 -.00001715  00000-0 -89702-4 0  9995,2 53399  53.2149 215.4790 0001515  89.3930 270.7235 15.08821843 86489,6917.936,95.439,540.849,538.753,0.0
53399.0,STARLINK-4528,PAYLOAD,2024-02-26 17:38:48,15.08824614,0.0001664,53.2162,214.8855,94.7513,265.3669,-6.905e-05,-1.386e-05,0.0,0 STARLINK-4528,1 53399U 22097M   24057.73527813 -.00001386  00000-0 -69050-4 0  9997,2 53399  53.2162 214.8855 0001664  94.7513 265.3669 15.08824614 86010,6917.927,95.439,540.944,538.641,0.0
53399.0,STARLINK-4528,PAYLOAD,2024-02-26 20:49:34,15.08826253,9.72e-05,53.2169,214.2874,67.1297,292.9797,-4.7462e-05,-1.043e-05,0.0,0 STARLINK-4528,1 53399U 22097M   24057.86775757 -.00001043  00000-0 -47462-4 0  9996,2 53399  53.2169 214.2874 0000972  67.1297 292.9797 15.08826253 86521,6917.922,95.438,540.46,539.115,0.0
53399.0,STARLINK-4528,PAYLOAD,2024-02-27 14:18:47,15.08842983,0.0001306,53.2171,211.018,84.5546,275.5595,3.1979e-05,2.21e-06,0.0,0 STARLINK-4528,1 53399U 22097M   24058.59638814  .00000221  00000-0  31979-4 0  9990,2 53399  53.2171 211.0180 0001306  84.5546 275.5595 15.08842983 86634,6917.871,95.437,540.64,538.833,0.0
53399.0,STARLINK-4528,PAYLOAD,2024-02-27 19:04:57,15.08847223,0.000138,53.2163,210.1249,79.3541,280.7607,0.000167,2.371e-05,0.0,0 STARLINK-4528,1 53399U 22097M   24058.79510513  .00002371  00000-0  16700-3 0  9999,2 53399  53.2163 210.1249 0001380  79.3541 280.7607 15.08847223 86173,6917.858,95.437,540.678,538.769,0.0
53399.0,STARLINK-4528,PAYLOAD,2024-02-28 03:01:53,15.08839152,0.0001396,53.2164,208.6382,85.8122,274.303,7.6282e-05,9.26e-06,0.0,0 STARLINK-4528,1 53399U 22097M   24059.12631010  .00000926  00000-0  76282-4 0  9999,2 53399  53.2164 208.6382 0001396  85.8122 274.3030 15.08839152 86225,6917.883,95.438,540.714,538.782,0.0
53399.0,STARLINK-4528,PAYLOAD,2024-02-28 14:09:35,15.08834978,0.0001483,53.2166,206.5561,79.9067,280.2093,0.00022366,3.273e-05,0.0,0 STARLINK-4528,1 53399U 22097M   24059.58999463  .00003273  00000-0  22366-3 0  9999,2 53399  53.2166 206.5561 0001483  79.9067 280.2093 15.08834978 86789,6917.896,95.438,540.787,538.735,0.0
53399.0,STARLINK-4528,PAYLOAD,2024-02-28 18:55:44,15.08839471,0.000147,53.2165,205.6631,78.6665,281.4492,0.00020747,3.015e-05,0.0,0 STARLINK-4528,1 53399U 22097M   24059.78871144  .00003015  00000-0  20747-3 0  9991,2 53399  53.2165 205.6631 0001470  78.6665 281.4492 15.08839471 86815,6917.882,95.438,540.764,538.73,0.0
53399.0,STARLINK-4528,PAYLOAD,2024-02-29 09:14:13,15.08830771,7.21e-05,53.2178,202.9857,70.9364,289.1707,9.1581e-06,-1.42e-06,0.0,0 STARLINK-4528,1 53399U 22097M   24060.38488255 -.00000142  00000-0  91581-5 0  9991,2 53399  53.2178 202.9857 0000721  70.9364 289.1707 15.08830771 86412,6917.909,95.438,540.272,539.275,0.0
53399.0,STARLINK-4528,PAYLOAD,2024-02-29 14:00:22,15.08846079,0.0001532,53.2158,202.0965,98.5537,261.5629,1.9688e-05,2.5e-07,0.0,0 STARLINK-4528,1 53399U 22097M   24060.58359203  .00000025  00000-0  19688-4 0  9999,2 53399  53.2158 202.0965 0001532  98.5537 261.5629 15.08846079 86932,6917.862,95.437,540.787,538.667,0.0
53399.0,STARLINK-4528,PAYLOAD,2024-02-29 18:46:31,15.088501,0.0001383,53.2168,201.204,88.4502,271.6649,5.852e-05,6.44e-06,0.0,0 STARLINK-4528,1 53399U 22097M   24060.78230803  .00000644  00000-0  58520-4 0  9990,2 53399  53.2168 201.2040 0001383  88.4502 271.6649 15.08850100 86475,6917.85,95.437,540.671,538.758,0.0
53399.0,STARLINK-4528,PAYLOAD,2024-03-01 13:51:08,15.08847887,0.0001289,53.2161,197.6369,85.2313,274.8826,0.00014204,1.974e-05,0.0,0 STARLINK-4528,1 53399U 22097M   24061.57718644  .00001974  00000-0  14204-3 0  9999,2 53399  53.2161 197.6369 0001289  85.2313 274.8826 15.08847887 87088,6917.856,95.437,540.613,538.83,0.0
53399.0,STARLINK-4528,PAYLOAD,2024-03-01 15:26:31,15.08852936,0.0001195,53.2157,197.3373,94.3586,265.7543,0.00011444,1.535e-05,0.0,0 STARLINK-4528,1 53399U 22097M   24061.64342314  .00001535  00000-0  11444-3 0  9990,2 53399  53.2157 197.3373 0001195  94.3586 265.7543 15.08852936 87091,6917.841,95.437,540.533,538.879,0.0
53399.0,STARLINK-4528,PAYLOAD,2024-03-02 12:06:32,15.08843403,0.0001133,53.2142,193.4726,84.3407,275.7714,7.7028e-05,9.38e-06,0.0,0 STARLINK-4528,1 53399U 22097M   24062.50454846  .00000938  00000-0  77028-4 0  9997,2 53399  53.2142 193.4726 0001133  84.3407 275.7714 15.08843403 86737,6917.87,95.437,540.519,538.951,0.0
53399.0,STARLINK-4528,PAYLOAD,2024-03-02 13:41:56,15.08843768,0.0001203,53.2149,193.175,88.5973,271.5157,6.6555e-05,7.72e-06,0.0,0 STARLINK-4528,1 53399U 22097M   24062.57078812  .00000772  00000-0  66555-4 0  9998,2 53399  53.2149 193.1750 0001203  88.5973 271.5157 15.08843768 87235,6917.869,95.437,540.566,538.902,0.0
53399.0,STARLINK-4528,PAYLOAD,2024-03-02 15:17:19,15.08846345,0.0001263,53.2164,192.877,92.8786,267.235,3.4855e-05,2.67e-06,0.0,0 STARLINK-4528,1 53399U 22097M   24062.63702668  .00000267  00000-0  34855-4 0  9995,2 53399  53.2164 192.8770 0001263  92.8786 267.2350 15.08846345 87248,6917.861,95.437,540.6,538.852,0.0
53399.0,STARLINK-4528,PAYLOAD,2024-03-03 11:57:20,15.08835668,0.0001429,53.2172,189.012,94.8961,265.2194,-4.9337e-05,-1.073e-05,0.0,0 STARLINK-4528,1 53399U 22097M   24063.49815670 -.00001073  00000-0 -49337-4 0  9997,2 53399  53.2172 189.0120 0001429  94.8961 265.2194 15.08835668 86884,6917.894,95.438,540.747,538.77,0.0
53399.0,STARLINK-4528,PAYLOAD,2024-03-03 15:08:07,15.08841708,0.0001415,53.2178,188.4196,87.317,272.7984,-0.00017299,-3.04e-05,0.0,0 STARLINK-4528,1 53399U 22097M   24063.63063742 -.00003040  00000-0 -17299-3 0  9995,2 53399  53.2178 188.4196 0001415  87.3170 272.7984 15.08841708 87399,6917.875,95.437,540.719,538.761,0.0
